{
"type": "FeatureCollection",
"name": "task3_congestion_scores",
"crs": { "type": "name", "properties": { "name": "urn:ogc:def:crs:OGC:1.3:CRS84" } },
"features": [
{ "type": "Feature", "properties": { "type": "Formal", "Network_Walking_Distance_to_School": 400, "Population": 2628.0508397662911, "Congestion_Multiplier": 8.7601694658876372, "Congestion_Adjusted_Distance": 3504.067786355055 }, "geometry": { "type": "Polygon", "coordinates": [ [ [ 77.51, 12.91 ], [ 77.52, 12.91 ], [ 77.52, 12.92 ], [ 77.51, 12.92 ], [ 77.51, 12.91 ] ] ] } },
{ "type": "Feature", "properties": { "type": "Informal", "Network_Walking_Distance_to_School": 1200, "Population": 2514.3449484666744, "Congestion_Multiplier": 8.3811498282222487, "Congestion_Adjusted_Distance": 10057.379793866698 }, "geometry": { "type": "Polygon", "coordinates": [ [ [ 77.53, 12.93 ], [ 77.54, 12.93 ], [ 77.54, 12.94 ], [ 77.53, 12.94 ], [ 77.53, 12.93 ] ] ] } },
{ "type": "Feature", "properties": { "type": "Formal", "Network_Walking_Distance_to_School": 600, "Population": 2260.1002018343474, "Congestion_Multiplier": 7.5336673394478249, "Congestion_Adjusted_Distance": 4520.2004036686949 }, "geometry": { "type": "Polygon", "coordinates": [ [ [ 77.55, 12.95 ], [ 77.56, 12.95 ], [ 77.56, 12.96 ], [ 77.55, 12.96 ], [ 77.55, 12.95 ] ] ] } },
{ "type": "Feature", "properties": { "type": "Informal", "Network_Walking_Distance_to_School": 1500, "Population": 2289.1726735961379, "Congestion_Multiplier": 7.6305755786537928, "Congestion_Adjusted_Distance": 11445.86336798069 }, "geometry": { "type": "Polygon", "coordinates": [ [ [ 77.57, 12.97 ], [ 77.58, 12.97 ], [ 77.58, 12.98 ], [ 77.57, 12.98 ], [ 77.57, 12.97 ] ] ] } }
]
}
